ALOS (DAICHI)           
1 28931U 06002A   24133.86353296  .00005146  00000+0  95563-3 0  9992
2 28931  98.0348  87.6862 0000757  97.7748 262.3541 14.65607511976174
